     2.100          NAVIGATION                              RINEX VERSION / TYPE
fic2rin                                 12/14/2017 00:25:20 PGM / RUN BY / DATE
                                                            END OF HEADER
20 17 12 13 22  0  0.0  .495472457260D-03  .102318153949D-11  .000000000000D+00
     .750000000000D+02 -.262812500000D+02  .562130557851D-08 -.298855549132D+01
    -.147335231304D-05  .463724799920D-02  .470317900181D-05  .515375958824D+04
     .338400000000D+06  .782310962677D-07  .119623938374D+01  .447034835815D-07
     .927267937163D+00  .266687500000D+03  .173818611251D+01 -.857642867125D-08
    -.192865176466D-10  .100000000000D+01  .197900000000D+04  .000000000000D+00
     .240000000000D+01  .000000000000D+00 -.838190317154D-08  .750000000000D+02
     .331206000000D+06  .400000000000D+01
21 17 12 13 22  0  0.0 -.452837441117D-03  .386535248253D-11  .000000000000D+00
     .106000000000D+03  .146562500000D+02  .509521223604D-08  .520333819912D+00
     .825151801109D-06  .241963812150D-01  .851228833199D-05  .515355020523D+04
     .338400000000D+06 -.346451997757D-06  .207999847389D+00 -.121071934700D-06
     .942243318982D+00  .213750000000D+03 -.161730239452D+01 -.873322091656D-08
     .315013121561D-09  .100000000000D+01  .197900000000D+04  .000000000000D+00
     .340000000000D+01  .000000000000D+00 -.977888703346D-08  .106000000000D+03
     .331206000000D+06  .400000000000D+01
22 17 12 13 22  0  0.0 -.221346504986D-03 -.128466126625D-10  .000000000000D+00
     .750000000000D+02 -.294375000000D+02  .564952103951D-08 -.256963498697D+01
    -.165775418282D-05  .714227696881D-02  .511482357979D-05  .515364080048D+04
     .338400000000D+06  .987201929092D-07  .124680173709D+01  .856816768646D-07
     .923952073878D+00  .255906250000D+03 -.164360270356D+01 -.851178312136D-08
    -.675028117631D-10  .100000000000D+01  .197900000000D+04  .000000000000D+00
     .240000000000D+01  .000000000000D+00 -.176951289177D-07  .750000000000D+02
     .331206000000D+06  .400000000000D+01
23 17 12 13 22  0  0.0 -.218977686018D-03 -.113686837722D-12  .000000000000D+00
     .540000000000D+02  .230625000000D+02  .470733893670D-08  .300880584559D+01
     .108964741230D-05  .118577776011D-01  .115633010864D-04  .515363823128D+04
     .338400000000D+06 -.931322574615D-08  .233533095819D+01 -.162050127983D-06
     .943806583001D+00  .148656250000D+03 -.241010602186D+01 -.782211153663D-08
    -.226080845746D-09  .100000000000D+01  .197900000000D+04  .000000000000D+00
     .240000000000D+01  .000000000000D+00 -.204890966415D-07  .540000000000D+02
     .331206000000D+06  .400000000000D+01
24 17 12 13 22  0  0.0 -.434163957834D-04 -.454747350886D-12  .000000000000D+00
     .400000000000D+02  .104281250000D+03  .496377818986D-08  .246682091711D+01
     .541843473911D-05  .647964817472D-02  .681355595589D-05  .515366928291D+04
     .338400000000D+06 -.201165676117D-06 -.292688427204D+01 -.577419996262D-07
     .943654534611D+00  .238250000000D+03  .487863144773D+00 -.826320133836D-08
     .231438211759D-09  .100000000000D+01  .197900000000D+04  .000000000000D+00
     .240000000000D+01  .000000000000D+00  .279396772385D-08  .400000000000D+02
     .331206000000D+06  .400000000000D+01
25 17 12 13 22  0  0.0 -.505262985826D-03 -.625277607469D-11  .000000000000D+00
     .770000000000D+02 -.270937500000D+02  .445875715370D-08  .495684321756D+00
    -.138394534588D-05  .680967990775D-02  .309012830257D-05  .515371521568D+04
     .338400000000D+06 -.223517417908D-07 -.183879173198D+01  .502914190292D-07
     .975511970583D+00  .325687500000D+03  .804944350832D+00 -.835891961113D-08
    -.276082928534D-09  .100000000000D+01  .197900000000D+04  .000000000000D+00
     .240000000000D+01  .000000000000D+00  .558793544769D-08  .770000000000D+02
     .331206000000D+06  .400000000000D+01
26 17 12 13 22  0  0.0 -.326392706484D-03  .143245415529D-10  .000000000000D+00
     .770000000000D+02 -.358750000000D+02  .482984403953D-08  .241649284863D-01
    -.199861824512D-05  .237594719511D-02  .312924385071D-05  .515357526016D+04
     .338400000000D+06  .745058059692D-08 -.185779391285D+01  .186264514923D-08
     .957167012979D+00  .316312500000D+03 -.700346824371D-01 -.844963767561D-08
    -.279297348141D-09  .100000000000D+01  .197900000000D+04  .000000000000D+00
     .240000000000D+01  .000000000000D+00  .745058059692D-08  .770000000000D+02
     .331206000000D+06  .400000000000D+01
27 17 12 13 22  0  0.0  .355733558536D-03  .284217094304D-11  .000000000000D+00
     .470000000000D+02 -.638125000000D+02  .384658879729D-08 -.184575059483D+01
    -.328943133354D-05  .515618594363D-02  .100415199995D-04  .515367987061D+04
     .338400000000D+06 -.689178705215D-07 -.798802341941D+00 -.558793544769D-07
     .976513737385D+00  .194843750000D+03  .359452891741D+00 -.766531929132D-08
    -.750031241812D-11  .100000000000D+01  .197900000000D+04  .000000000000D+00
     .240000000000D+01  .000000000000D+00  .186264514923D-08  .470000000000D+02
     .331206000000D+06  .400000000000D+01
28 17 12 13 22  0  0.0  .670743174851D-03  .318323145621D-11  .000000000000D+00
     .500000000000D+01 -.448437500000D+02  .430732227440D-08 -.100963323571D+01
    -.211410224438D-05  .199908589711D-01  .417605042458D-05  .515366283607D+04
     .338400000000D+06 -.292435288429D-06 -.175774951117D+01  .214204192162D-06
     .987009961018D+00  .316781250000D+03 -.154314402251D+01 -.843499420851D-08
    -.283583240952D-09  .100000000000D+01  .197900000000D+04  .000000000000D+00
     .240000000000D+01  .000000000000D+00 -.111758708954D-07  .500000000000D+01
     .331206000000D+06  .400000000000D+01
29 17 12 13 22  0  0.0  .525624956936D-03 -.511590769747D-11  .000000000000D+00
     .770000000000D+02 -.621250000000D+02  .378122893193D-08 -.594284321505D+00
    -.328011810780D-05  .407406594604D-03  .965408980846D-05  .515377100372D+04
     .338400000000D+06  .204890966415D-07 -.735309729676D+00  .558793544769D-08
     .982944540934D+00  .205812500000D+03  .878065148195D+00 -.768639159763D-08
    -.410731394325D-10  .100000000000D+01  .197900000000D+04  .000000000000D+00
     .240000000000D+01  .000000000000D+00 -.102445483208D-07  .770000000000D+02
     .331206000000D+06  .400000000000D+01
30 17 12 13 22  0  0.0  .120987650007D-03 -.295585778076D-11  .000000000000D+00
     .720000000000D+02  .977187500000D+02  .504735309966D-08  .159326676166D+01
     .518001616001D-05  .299607776105D-02  .581704080105D-05  .515359715843D+04
     .338400000000D+06  .521540641785D-07 -.283402407527D+01  .745058059692D-08
     .946242910678D+00  .259187500000D+03 -.307591123939D+01 -.847213861287D-08
     .190722230061D-09  .100000000000D+01  .197900000000D+04  .000000000000D+00
     .240000000000D+01  .000000000000D+00  .372529029846D-08  .720000000000D+02
     .331206000000D+06  .400000000000D+01
31 17 12 13 22  0  0.0  .155692920089D-03 -.261479726760D-11  .000000000000D+00
     .780000000000D+02  .973750000000D+02  .453590322429D-08  .130950128390D+01
     .526569783688D-05  .881290575489D-02  .548176467419D-05  .515357574272D+04
     .338400000000D+06  .875443220139D-07 -.285820858637D+01  .130385160446D-06
     .965289195598D+00  .272187500000D+03 -.200045167427D+00 -.813605318499D-08
     .596453416107D-10  .100000000000D+01  .197900000000D+04  .000000000000D+00
     .240000000000D+01  .000000000000D+00 -.135041773319D-07  .780000000000D+02
     .331206000000D+06  .400000000000D+01
32 17 12 13 22  0  0.0 -.529596116394D-03 -.181898940355D-11  .000000000000D+00
     .650000000000D+02  .177500000000D+02  .449411576939D-08 -.115251106829D+01
     .946223735809D-06  .149987183977D-02  .108703970909D-04  .515361786079D+04
     .338400000000D+06  .372529029846D-07  .233956689601D+01 -.186264514923D-08
     .957401912273D+00  .169343750000D+03 -.266907931135D+01 -.787497088129D-08
    -.238581366443D-09  .100000000000D+01  .197900000000D+04  .000000000000D+00
     .240000000000D+01  .000000000000D+00  .465661287308D-09  .650000000000D+02
     .331206000000D+06  .400000000000D+01
28 17 12 13 21 59 28.0  .670743640512D-03  .318323145621D-11  .000000000000D+00
     .760000000000D+02 -.448437500000D+02  .430732227440D-08 -.101430065975D+01
    -.211410224438D-05  .199908602517D-01  .417605042458D-05  .515366283798D+04
     .338368000000D+06 -.292435288429D-06 -.175774924200D+01  .214204192162D-06
     .987009972721D+00  .316781250000D+03 -.154314410004D+01 -.843499420851D-08
    -.283583240952D-09  .100000000000D+01  .197900000000D+04  .000000000000D+00
     .240000000000D+01  .000000000000D+00 -.111758708954D-07  .760000000000D+02
     .332706000000D+06  .400000000000D+01
 5 17 12 13 21 59 44.0 -.198781490326D-04  .113686837722D-11  .000000000000D+00
     .580000000000D+02 -.295000000000D+02  .515700052406D-08 -.115652272028D+01
    -.146217644215D-05  .529649725650D-02  .518560409546D-05  .515359991837D+04
     .338384000000D+06  .126659870148D-06  .128069057086D+01 -.186264514923D-07
     .946916767318D+00  .267156250000D+03  .632243335701D+00 -.839427822681D-08
    -.914323799542D-10  .100000000000D+01  .197900000000D+04  .000000000000D+00
     .240000000000D+01  .000000000000D+00 -.107102096081D-07  .580000000000D+02
     .333726000000D+06  .400000000000D+01
 4 17 12 13 21 59 44.0  .267070718110D-04  .193267624127D-11  .000000000000D+00
     .310000000000D+02 -.377500000000D+02  .562880589093D-08 -.691523504615D+00
    -.195391476154D-05  .924608565401D-02  .341236591339D-05  .515365640640D+04
     .338384000000D+06 -.242143869400D-07 -.181459211332D+01  .171363353729D-06
     .980316192093D+00  .321781250000D+03  .895555913784D+00 -.828677374882D-08
    -.303584074067D-09  .100000000000D+01  .197900000000D+04  .000000000000D+00
     .240000000000D+01  .630000000000D+02 -.195577740669D-07  .310000000000D+02
     .336606000000D+06  .400000000000D+01
